{
  "type": "FeatureCollection",
  "features": [
    {
      "type": "Feature",
      "properties": {
        "norad_id": 35442,
        "name": "COSMOS 2251 DEB",
        "group": "cosmos-2251-debris",
        "lat": 37.70498781652465,
        "lon": 116.54333736957378,
        "alt_km": 611.459092808379,
        "timestamp": "2025-12-10T09:57:45.093983+00:00",
        "meta_object_name": "COSMOS 2251 DEB",
        "meta_object_id": "1993-036AKL",
        "meta_epoch": "2025-12-09T14:22:23.975040",
        "meta_mean_motion": 14.84229139,
        "meta_eccentricity": 0.0003867,
        "meta_inclination": 74.0279,
        "meta_ra_of_asc_node": 105.3704,
        "meta_arg_of_pericenter": 102.501,
        "meta_mean_anomaly": 257.6601,
        "meta_ephemeris_type": 0,
        "meta_classification_type": "U",
        "meta_norad_cat_id": 35442,
        "meta_element_set_no": 999,
        "meta_rev_at_epoch": 87306,
        "meta_bstar": 0.0036554,
        "meta_mean_motion_dot": 0.00030716,
        "meta_mean_motion_ddot": 0,
        "tle_line1": "1 35442U 93036AKL 25343.59888860  .00030716  00000+0  36554-2 0  9999",
        "tle_line2": "2 35442  74.0279 105.3704 0003867 102.5010 257.6601 14.84229139873066"
      },
      "geometry": {
        "type": "Point",
        "coordinates": [
          116.54333736957378,
          37.70498781652465
        ]
      }
    },
    {
      "type": "Feature",
      "properties": {
        "norad_id": 35443,
        "name": "COSMOS 2251 DEB",
        "group": "cosmos-2251-debris",
        "lat": -28.43543396217515,
        "lon": -32.63593872522631,
        "alt_km": 627.1520985377956,
        "timestamp": "2025-12-10T09:57:45.093993+00:00",
        "meta_object_name": "COSMOS 2251 DEB",
        "meta_object_id": "1993-036AKM",
        "meta_epoch": "2025-12-08T06:44:44.274336",
        "meta_mean_motion": 14.96147372,
        "meta_eccentricity": 0.00733753,
        "meta_inclination": 73.988,
        "meta_ra_of_asc_node": 340.6328,
        "meta_arg_of_pericenter": 123.8306,
        "meta_mean_anomaly": 236.9892,
        "meta_ephemeris_type": 0,
        "meta_classification_type": "U",
        "meta_norad_cat_id": 35443,
        "meta_element_set_no": 999,
        "meta_rev_at_epoch": 86811,
        "meta_bstar": 0.0035457848,
        "meta_mean_motion_dot": 0.00042371,
        "meta_mean_motion_ddot": 0,
        "tle_line1": "1 35443U 93036AKM 25342.28106799  .00042371  00000+0  35458-2 0  9991",
        "tle_line2": "2 35443  73.9880 340.6328 0073375 123.8306 236.9892 14.96147372868117"
      },
      "geometry": {
        "type": "Point",
        "coordinates": [
          -32.63593872522631,
          -28.43543396217515
        ]
      }
    },
    {
      "type": "Feature",
      "properties": {
        "norad_id": 35445,
        "name": "COSMOS 2251 DEB",
        "group": "cosmos-2251-debris",
        "lat": -41.55292104542105,
        "lon": -70.2598307150807,
        "alt_km": 675.6657875849696,
        "timestamp": "2025-12-10T09:57:45.094003+00:00",
        "meta_object_name": "COSMOS 2251 DEB",
        "meta_object_id": "1993-036AKP",
        "meta_epoch": "2025-12-09T14:24:43.016832",
        "meta_mean_motion": 14.5903749,
        "meta_eccentricity": 0.0143697,
        "meta_inclination": 74.0376,
        "meta_ra_of_asc_node": 305.9887,
        "meta_arg_of_pericenter": 33.7492,
        "meta_mean_anomaly": 327.2717,
        "meta_ephemeris_type": 0,
        "meta_classification_type": "U",
        "meta_norad_cat_id": 35445,
        "meta_element_set_no": 999,
        "meta_rev_at_epoch": 87283,
        "meta_bstar": 0.0029214,
        "meta_mean_motion_dot": 0.00015858,
        "meta_mean_motion_ddot": 0,
        "tle_line1": "1 35445U 93036AKP 25343.60049788  .00015858  00000+0  29214-2 0  9997",
        "tle_line2": "2 35445  74.0376 305.9887 0143697  33.7492 327.2717 14.59037490872837"
      },
      "geometry": {
        "type": "Point",
        "coordinates": [
          -70.2598307150807,
          -41.55292104542105
        ]
      }
    },
    {
      "type": "Feature",
      "properties": {
        "norad_id": 35446,
        "name": "COSMOS 2251 DEB",
        "group": "cosmos-2251-debris",
        "lat": 29.71850643218457,
        "lon": -28.021497198599093,
        "alt_km": 674.9599117920861,
        "timestamp": "2025-12-10T09:57:45.094013+00:00",
        "meta_object_name": "COSMOS 2251 DEB",
        "meta_object_id": "1993-036AKQ",
        "meta_epoch": "2025-12-05T17:34:52.262112",
        "meta_mean_motion": 14.54618421,
        "meta_eccentricity": 0.00744002,
        "meta_inclination": 74.0466,
        "meta_ra_of_asc_node": 331.4309,
        "meta_arg_of_pericenter": 91.6694,
        "meta_mean_anomaly": 269.2992,
        "meta_ephemeris_type": 0,
        "meta_classification_type": "U",
        "meta_norad_cat_id": 35446,
        "meta_element_set_no": 999,
        "meta_rev_at_epoch": 87906,
        "meta_bstar": 0.00018901942,
        "meta_mean_motion_dot": 8.08e-06,
        "meta_mean_motion_ddot": 0,
        "tle_line1": "1 35446U 93036AKQ 25339.73254933  .00000808  00000+0  18902-3 0  9999",
        "tle_line2": "2 35446  74.0466 331.4309 0074400  91.6694 269.2992 14.54618421879069"
      },
      "geometry": {
        "type": "Point",
        "coordinates": [
          -28.021497198599093,
          29.71850643218457
        ]
      }
    },
    {
      "type": "Feature",
      "properties": {
        "norad_id": 35448,
        "name": "COSMOS 2251 DEB",
        "group": "cosmos-2251-debris",
        "lat": -67.2363339315481,
        "lon": -42.57603931576942,
        "alt_km": 711.2152775951472,
        "timestamp": "2025-12-10T09:57:45.094024+00:00",
        "meta_object_name": "COSMOS 2251 DEB",
        "meta_object_id": "1993-036AKS",
        "meta_epoch": "2025-12-08T08:55:07.122144",
        "meta_mean_motion": 14.54200662,
        "meta_eccentricity": 0.00113673,
        "meta_inclination": 73.9041,
        "meta_ra_of_asc_node": 97.835,
        "meta_arg_of_pericenter": 278.6106,
        "meta_mean_anomaly": 81.3768,
        "meta_ephemeris_type": 0,
        "meta_classification_type": "U",
        "meta_norad_cat_id": 35448,
        "meta_element_set_no": 999,
        "meta_rev_at_epoch": 87271,
        "meta_bstar": 0.0016168374,
        "meta_mean_motion_dot": 6.829e-05,
        "meta_mean_motion_ddot": 0,
        "tle_line1": "1 35448U 93036AKS 25342.37161021  .00006829  00000+0  16168-2 0  9990",
        "tle_line2": "2 35448  73.9041  97.8350 0011367 278.6106  81.3768 14.54200662872718"
      },
      "geometry": {
        "type": "Point",
        "coordinates": [
          -42.57603931576942,
          -67.2363339315481
        ]
      }
    },
    {
      "type": "Feature",
      "properties": {
        "norad_id": 35451,
        "name": "COSMOS 2251 DEB",
        "group": "cosmos-2251-debris",
        "lat": -41.57332382077462,
        "lon": 92.87623779069555,
        "alt_km": 444.6605902178544,
        "timestamp": "2025-12-10T09:57:45.094034+00:00",
        "meta_object_name": "COSMOS 2251 DEB",
        "meta_object_id": "1993-036AKV",
        "meta_epoch": "2025-12-09T18:30:37.951776",
        "meta_mean_motion": 15.35105788,
        "meta_eccentricity": 0.0040667,
        "meta_inclination": 73.9316,
        "meta_ra_of_asc_node": 109.079,
        "meta_arg_of_pericenter": 355.9338,
        "meta_mean_anomaly": 4.153,
        "meta_ephemeris_type": 0,
        "meta_classification_type": "U",
        "meta_norad_cat_id": 35451,
        "meta_element_set_no": 999,
        "meta_rev_at_epoch": 67360,
        "meta_bstar": 0.0019617,
        "meta_mean_motion_dot": 0.00069256,
        "meta_mean_motion_ddot": 0,
        "tle_line1": "1 35451U 93036AKV 25343.77127259  .00069256  00000+0  19617-2 0  9999",
        "tle_line2": "2 35451  73.9316 109.0790 0040667 355.9338   4.1530 15.35105788673602"
      },
      "geometry": {
        "type": "Point",
        "coordinates": [
          92.87623779069555,
          -41.57332382077462
        ]
      }
    },
    {
      "type": "Feature",
      "properties": {
        "norad_id": 35453,
        "name": "COSMOS 2251 DEB",
        "group": "cosmos-2251-debris",
        "lat": 72.13091625364517,
        "lon": 87.46710148550946,
        "alt_km": 746.9548518050824,
        "timestamp": "2025-12-10T09:57:45.094044+00:00",
        "meta_object_name": "COSMOS 2251 DEB",
        "meta_object_id": "1993-036AKX",
        "meta_epoch": "2025-12-02T12:53:58.122528",
        "meta_mean_motion": 14.3790654,
        "meta_eccentricity": 0.00680216,
        "meta_inclination": 74.0102,
        "meta_ra_of_asc_node": 39.1945,
        "meta_arg_of_pericenter": 175.6131,
        "meta_mean_anomaly": 184.5634,
        "meta_ephemeris_type": 0,
        "meta_classification_type": "U",
        "meta_norad_cat_id": 35453,
        "meta_element_set_no": 999,
        "meta_rev_at_epoch": 86072,
        "meta_bstar": 0.00098540606,
        "meta_mean_motion_dot": 3.03e-05,
        "meta_mean_motion_ddot": 0,
        "tle_line1": "1 35453U 93036AKX 25336.53747827  .00003030  00000+0  98541-3 0  9998",
        "tle_line2": "2 35453  74.0102  39.1945 0068021 175.6131 184.5634 14.37906540860721"
      },
      "geometry": {
        "type": "Point",
        "coordinates": [
          87.46710148550946,
          72.13091625364517
        ]
      }
    }
  ]
}